Nome,Ponto_de_Coleta,Endereco,Bairro,Bonificacao,Horario_de_funcionamento,x,y
Ecoponto Vila Velha,Ecoponto,Rua Jasmin s/n (Por trás do Liceu),Vila Velha,Sim,"08:00–12:00, 14:00–17:00",-38.6004496,-3.711365194
Ecoponto Vila Velha II,Ecoponto,Av. Major Assis x Rua Cecília,Vila Velha,Sim,"08:00–12:00, 14:00–17:00",-38.6057667,-3.719281416
Ecoponto Vila Do Mar,Ecoponto,Rua Lídia Petri Gonçalves (em frente ao numero 1140),Barra do Ceará,Sim,"08:00–12:00, 14:00–17:00",-38.58240062,-3.695408694
Ecoponto Barra Do Ceará,Ecoponto,Rua Graça Aranha x Tv. 14 de Maio,Barra do Ceará,Sim,"08:00–12:00, 14:00–17:00",-38.57322902,-3.708118701
Ecoponto Barra Do Ceará II,Ecoponto,Av. Francisco Sá x Rua Helenice Paiva Menezes,Barra do Ceará,Sim,"08:00–12:00, 14:00–17:00",-38.58596856,-3.706662038
Ecoponto Cristo Redentor,Ecoponto,Av Presidente Castelo Branco em frente ao número 3833,Cristo redentor,Sim,"08:00–12:00, 14:00–17:00",-38.5670514,-3.708639815
Ecoponto Pirambu II,Ecoponto,Rua Santa Rosa (Prox. Nº80),Pirambu,Sim,"08:00–12:00, 14:00–17:00",-38.55282426,-3.710480204
Ecoponto Pirambu,Ecoponto,Rua Costa Matos x Vila do Mar,Pirambu,Sim,"08:00–12:00, 14:00–17:00",-38.54536774,-3.713465287
Ecoponto  Leste Oeste,Ecoponto,Av. Leste Oeste (PROX. Nº 2958),Pirambu,Sim,"08:00–12:00, 14:00–17:00",-38.55536583,-3.71212195
Ecoponto Carlito Pamplona,Ecoponto,Rua Dom Hélio Campos x Av. Tenente Lisboa,Carlito Pamplona,Sim,"08:00–12:00, 14:00–17:00",-38.55629835,-3.71769404
Ecoponto Jacarecanga,Ecoponto,Av. Jose Jatahy com Av. Sargento Herminio,Jacarecanga,Sim,"08:00–12:00, 14:00–17:00",-38.54602756,-3.724484836
Ecoponto Floresta,Ecoponto,Rua General Mário Hermes com Rua Adolfo Bezerra de Menezes,Floresta,Sim,"08:00–12:00, 14:00–17:00",-38.57675368,-3.714475141
Ecoponto Álvaro Weyne,Ecoponto,"Rua José Acioli, esquina com Av. Tenente Lisboa",Álvaro Weyne,Sim,"08:00–12:00, 14:00–17:00",-38.56872042,-3.720825433
Ecoponto Lagoa Do Urubu I,Ecoponto,Rua Maria Souza com Rua Valmir,Floresta,Sim,"08:00–12:00, 14:00–17:00",-38.57760296,-3.719425763
Ecoponto Lagoa Do Urubu II,Ecoponto,Rua Frei Odilon com Rua 01,Floresta,Sim,"08:00–12:00, 14:00–17:00",-38.5751155,-3.724072235
Ecoponto Verdes Mares,Ecoponto,"Rua Júlio Azevedo, 688",Papicu,Sim,"08:00–12:00, 14:00–17:00",-38.47870048,-3.736922082
Ecoponto Joaquim Tavora,Ecoponto,Praça Joaquim Tavora,Aldeota,Sim,"08:00–12:00, 14:00–17:00",-38.51658933,-3.752306782
Ecoponto Praça Das Flores,Ecoponto,Rua Torres Câmara x Avenida Des. Moreira,Aldeota,Sim,"08:00–12:00, 14:00–17:00",-38.49877566,-3.738488322
Ecoponto Varjota,Ecoponto,Av. Antônio Justa x Rua Meruoca,Varjota,Sim,"08:00–12:00, 14:00–17:00",-38.48314828,-3.731581648
Ecoponto Parque Rio Branco,Ecoponto,Av. Visconde do Rio Branco s/n,Joaquim Távora,Sim,"08:00–12:00, 14:00–17:00",-38.52077218,-3.751644538
Ecoponto Vicente Pinzon,Ecoponto,Rua Veneza x Rua Josias Paulo de Sousa,Vicente Pinzon,Sim,"08:00–12:00, 14:00–17:00",-38.47204043,-3.728680412
Ecoponto Praia Do Futuro,Ecoponto,Rua Coronel José Aurélio Câmara x Av. Dioguinho,Vicente Pinzon,Sim,"08:00–12:00, 14:00–17:00",-38.45945227,-3.730755537
Ecoponto Campo Do América,Ecoponto,Rua José Vilar x Rua Edgar Damasceno,Meireles,Sim,"08:00–12:00, 14:00–17:00",-38.50303321,-3.730919097
Ecoponto Luiza Tavora,Ecoponto,"Rua Costa Barros, 1567 ",Aldeota,Sim,"08:00–12:00, 14:00–17:00",-38.50960203,-3.731105107
Ecoponto São Gerardo,Ecoponto,Rua Dr. Hélio Viana x Av. Projetada (Canal),São Gerardo,Sim,"08:00–12:00, 14:00–17:00",-38.56059205,-3.732137699
Ecoponto Bairro Elery,Ecoponto,Rua Gonçalo de Lagos x Rua Catarina Laboure,Ellery,Sim,"08:00–12:00, 14:00–17:00",-38.55768379,-3.722940252
Ecoponto Antonio Bezerra,Ecoponto,Rua Doutor João Guilherme (em frente ao Nº 373),Antônio Bezerra,Sim,"08:00–12:00, 14:00–17:00",-38.58868999,-3.737169395
Ecoponto Jovita Feitosa,Ecoponto,Rua General Bernardo Figueiredo x Rua Cruz Saldanha,Amadeu Furtado,Sim,"08:00–12:00, 14:00–17:00",-38.55290125,-3.73970417
Ecoponto Rodolfo Teófilo,Ecoponto,Rua Ana Neri x Rua Coronel Nunes Melo,Rodolfo Teófilo,Sim,"08:00–12:00, 14:00–17:00",-38.5506092,-3.745979584
Ecoponto Itaóca,Ecoponto,Rua Barão de Canidé x Rua Mundica Paula,Itaoca,Sim,"08:00–12:00, 14:00–17:00",-38.55820888,-3.772442338
Ecoponto Parreão,Ecoponto,Av. Luciano Carneiro x Rua André Chaves,Parreão,Sim,"08:00–12:00, 14:00–17:00",-38.53511604,-3.758410978
Ecoponto Vila Peri,Ecoponto,Rua Antônio Costa Mendes x Tv. Augusto Ribeiro,Vila Peri,Sim,"08:00–12:00, 14:00–17:00",-38.58408275,-3.79019943
Ecoponto Parangaba,Ecoponto,Alameda Oxóssi x Rua Engenheiro José Henrique Frota,Parangaba,Sim,"08:00–12:00, 14:00–17:00",-38.55819039,-3.778512661
Ecoponto Bairro De Fátima,Ecoponto,Av. Eduardo Girão x Av. Luciano Carneiro,Fátima,Sim,"08:00–12:00, 14:00–17:00",-38.53277336,-3.75260904
Ecoponto Damas,Ecoponto,Rua Júlio César (entre as ruas Macedo e Afrodísio Gondim),Damas,Sim,"08:00–12:00, 14:00–17:00",-38.54765547,-3.755323137
Ecoponto Aguanambi,Ecoponto,Av. Aguanambi x Rua José Euclides,Fátima,Sim,"08:00–12:00, 14:00–17:00",-38.52378608,-3.752171143
Ecoponto Bonsucesso,Ecoponto,Rua Emilio de Menezes x Rua Luzia Moreira,Bonsucesso,Sim,"08:00–12:00, 14:00–17:00",-38.59341188,-3.780246667
Ecoponto Granja Portugal,Ecoponto,"Rua Duas Nações, 1029",Granja Portugal,Sim,"08:00–12:00, 14:00–17:00",-38.60299354,-3.781092171
Ecoponto Siqueira,Ecoponto,Rua C x Av. Luiz Montenegro,Siqueira,Sim,"08:00–12:00, 14:00–17:00",-38.61630229,-3.815507554
Ecoponto Granja Lisboa,Ecoponto,Rua LO 02 x Rua NS 02,Granja Lisboa,Sim,"08:00–12:00, 14:00–17:00",-38.6178174,-3.797817197
Ecoponto Aerolândia,Ecoponto,Rua Tenente Roma X Rod. BR 116,Aerolândia,Sim,"08:00–12:00, 14:00–17:00",-38.51708711,-3.768238675
Ecoponto Lagoa Da Zeza,Ecoponto,Av. Rogaciano Leite x Rua Castro de Alencar,Jardim das Oliveiras,Sim,"08:00–12:00, 14:00–17:00",-38.50259481,-3.782836275
Ecoponto Tancredo Neves,Ecoponto,Av. José Leon x Rua Da Cachoeira,Messejana,Sim,"08:00–12:00, 14:00–17:00",-38.50898285,-3.786730422
Ecoponto Cidade Dos Funcionários,Ecoponto,Rua Dr. José Plutarco x Rua Aluísio Barros Leal,Cidade dos Funcionários,Sim,"08:00–12:00, 14:00–17:00",-38.49212179,-3.789668544
Ecoponto Cidade Dos Funcionários II,Ecoponto,Av.  Desembargador Gonzaga x Av. Heitor de Oliveira Albuquerque,Cidade dos Funcionários,Sim,"08:00–12:00, 14:00–17:00",-38.5025878,-3.790758976
Ecoponto Messejana,Ecoponto,Rua Nicolau Coelho x Rua 24 de Novembro,Messejana,Sim,"08:00–12:00, 14:00–17:00",-38.492217,-3.821396619
Ecoponto Messejana II,Ecoponto,Rua  José Hipólito – Em frente ao nº 819,Messejana,Sim,"08:00–12:00, 14:00–17:00",-38.48845798,-3.834693303
Ecoponto Lagoa Redonda,Ecoponto,Rua Paulo Coelho x Rua Paulo Freire,Lagoa Redonda,Sim,"08:00–12:00, 14:00–17:00",-38.46894677,-3.828806631
Ecoponto São Bento,Ecoponto,Tv. José Teixeira Costa x Rua São Benedito,São Bento,Sim,"08:00–12:00, 14:00–17:00",-38.48102892,-3.847464864
Ecoponto Paupina,Ecoponto,Rua Primeiro de Abril x Rua Shirley,Paupina,Sim,"08:00–12:00, 14:00–17:00",-38.49400927,-3.868277842
Ecoponto São Bento II,Ecoponto,Rua Oliveira Lemos em frente ao nº 199,São Bento,Sim,"08:00–12:00, 14:00–17:00",-38.4810832,-3.853104558
Ecoponto Cocó,Ecoponto,Rua Padre Antonio Tomas (Entre via expressa e Eng Santana Jr),Cocó,Sim,"08:00–12:00, 14:00–17:00",-38.4886038,-3.743478745
Ecoponto Cidade 2000,Ecoponto,Rua Giselda Cysne x Rua Sólon Carvalho,Cidade 2000,Sim,"08:00–12:00, 14:00–17:00",-38.47278256,-3.752557706
Ecoponto Guararapes,Ecoponto,Av. Washington Soares (enfrente ao iguatemi),Guararapes,Sim,"08:00–12:00, 14:00–17:00",-38.48896483,-3.757950553
Ecoponto Edson Queiroz,Ecoponto,Rua Vereador José Batista x Rua Hil de Moraes,Edson Queiroz,Sim,"08:00–12:00, 14:00–17:00",-38.47521706,-3.773906705
Ecoponto Luciano Cavalcante,Ecoponto,Rua Jaime Leonel x Rua Monsenhor Carneiro da Cunha,Engenheiro Luciano Cavalcante,Sim,"08:00–12:00, 14:00–17:00",-38.49691685,-3.773757591
Ecoponto Sapiranga,Ecoponto,Av. Edilson Brasil Soares x Rua Bill Cartaxo,Sapiranga,Sim,"08:00–12:00, 14:00–17:00",-38.47423919,-3.789145547
Ecoponto Sapiranga II,Ecoponto,Rua Dr. Correia Lima X Rua Itamar Espíndola,Sapiranga,Sim,"08:00–12:00, 14:00–17:00",-38.45855667,-3.794780356
Ecoponto Sapiranga III,Ecoponto,Av. Evilásio Almeida Miranda x Rua Ana Macedo,Sapiranga,Sim,"08:00–12:00, 14:00–17:00",-38.46728082,-3.795748893
Ecoponto Serrinha,Ecoponto,Rua Frei Alemão x Rua Inácio Parente,Serrinha,Sim,"08:00–12:00, 14:00–17:00",-38.54260932,-3.782428401
Ecoponto Dias Macedo,Ecoponto,Rua Marechal Bitencourt x Rua Capitão João Ferreira Lima,Dias Mecedo,Sim,"08:00–12:00, 14:00–17:00",-38.52804999,-3.785447104
Ecoponto Parque 2 Irmãos,Ecoponto,Rua H x Rua K,Parque Dois Irmãos,Sim,"08:00–12:00, 14:00–17:00",-38.54702696,-3.805314861
Ecoponto Jardim União,Ecoponto,Rua Menor Jerônimo (Em frente ao Nº 2930),Passaré,Sim,"08:00–12:00, 14:00–17:00",-38.53494872,-3.81428995
Ecoponto José Walter,Ecoponto,Av. B x Rua 22 (Por trás do 08º Distrito Policial),Prefeito José Walter,Sim,"08:00–12:00, 14:00–17:00",-38.55843897,-3.825936994
Ecoponto José Walter II,Ecoponto,Av. E x Av. I,Prefeito José Walter,Sim,"08:00–12:00, 14:00–17:00",-38.55406857,-3.835569078
Ecoponto Cidade Jardim II,Ecoponto,Rua 16 QUADRA 08,Prefeito José Walter,Sim,"08:00–12:00, 14:00–17:00",-38.551337,-3.842645807
Ecoponto Itaperi,Ecoponto,Endereço: Av. Dr. Silas Munguba x Rua Poraguaçu,Itaperi,Sim,"08:00–12:00, 14:00–17:00",-38.54069536,-3.790423758
Ecoponto Cajazeiras,Ecoponto,Rua Francisco José de Albuquerque Próximo ao Nº 414,Cajazeiras,Sim,"08:00–12:00, 14:00–17:00",-38.50496443,-3.811812057
Ecoponto Jardim Glória,Ecoponto,Rua Beatriz x Rua Cinco,Barroso,Sim,"08:00–12:00, 14:00–17:00",-38.50574409,-3.817699126
Ecoponto João Paulo II,Ecoponto,"Rua 23 com Rua K, em frente ao Nº 41",Vila Velha,Sim,"08:00–12:00, 14:00–17:00",-38.51568347,-3.826985596
Ecoponto Santa Filomena,Ecoponto,Rua Domingos Alves Ribeiro x Rua Paraisópolis,Jangurussu,Sim,"08:00–12:00, 14:00–17:00",-38.51301259,-3.83778406
Ecoponto Jangurussu,Ecoponto,Av. Castelo de Castro x Rua Gergelim (Próximo ao Nº 1300),Jangurussu,Sim,"08:00–12:00, 14:00–17:00",-38.52164232,-3.841027359
Ecoponto Sítio São João,Ecoponto,"Rua Verde 42, em frente ao número 287 ",Jangurussu,Sim,"08:00–12:00, 14:00–17:00",-38.51426132,-3.850538698
Ecoponto Jardim Cearense,Ecoponto,Rua holanda x Rua Coronel Jaime Rolemberg,Jardim Cearense,Sim,"08:00–12:00, 14:00–17:00",-38.51739796,-3.873226044
Ecoponto Conjunto Esperança,Ecoponto,Av. da Penetração Norte Sul x Rua Do Canal,Conjunto Esperança,Sim,"08:00–12:00, 14:00–17:00",-38.56085031,-3.801404398
Ecoponto Aracapé,Ecoponto,Rua Miguel Aragão x Rua Nossa Senhora Aparecida,Mondubim,Sim,"08:00–12:00, 14:00–17:00",-38.59279807,-3.813879858
Ecoponto Mondubim,Ecoponto,Rua Carlos Pimenta x Rua Coronel Tibúrcio,Mondubim,Sim,"08:00–12:00, 14:00–17:00",-38.58644341,-3.833685134
Ecoponto Mondubim II,Ecoponto,Rua B x Rua Mangaba,Mondubim,Sim,"08:00–12:00, 14:00–17:00",-38.57450627,-3.81529809
Ecoponto Cartier,Ecoponto,Rua Quartzo x Rua Ônix,Mondubim,Sim,"08:00–12:00, 14:00–17:00",-38.56338576,-3.822626662
Ecoponto Autran Nunes II,Ecoponto,Rua Padre Hipólito Pamplona x Rua Pinhais,Autran Nunes,Sim,"08:00–12:00, 14:00–17:00",-38.55808431,-3.812122333
Ecoponto Autran Nunes,Ecoponto,Av. Senador Fernandes Távora x Rua Desembargador Felismino,Autran Nunes,Sim,"08:00–12:00, 14:00–17:00",-38.59551704,-3.748366784
Ecoponto Conjunto Ceará I,Ecoponto,AV. D X Rua  Quatrocentos Trinta Dois,Conjunto Ceará I,Sim,"08:00–12:00, 14:00–17:00",-38.59842528,-3.755341784
Ecoponto Conjunto Ceará II,Ecoponto,Av. C x Rua 1000,Conjunto Ceará II,Sim,"08:00–12:00, 14:00–17:00",-38.60484425,-3.76160856
Ecoponto Conjunto Ceará,Ecoponto,Av. Ministro Albuquerque Lima x Rua 721,Conjunto Ceará II,Sim,"08:00–12:00, 14:00–17:00",-38.6158816,-3.773350062
Ecoponto João XXIII,Ecoponto,Tv. Rio de Janeiro x Rua Maceió,João XXIII,Sim,"08:00–12:00, 14:00–17:00",-38.60247196,-3.77145181
Ecoponto Joquei Clube,Ecoponto,Rua Perdigão de Oliveira x Rua Silveira Filho,Jóquei Clube,Sim,"08:00–12:00, 14:00–17:00",-38.59162107,-3.769755192
Ecoponto Pici,Ecoponto,Rua Pernambuco (Ao lado Esquerdo do Nº 600),Pici,Sim,"08:00–12:00, 14:00–17:00",-38.57803949,-3.774521137
Ecoponto Bela Vista,Ecoponto,Rua Rio Grande do Sul x Rua Maria Andrade,Bela Vista,Sim,"08:00–12:00, 14:00–17:00",-38.57223826,-3.757406795
Ecoponto Dom Lustosa,Ecoponto,Rua Coronel Matos Dourado x Rua Vitória,Floresta,Sim,"08:00–12:00, 14:00–17:00",-38.56221754,-3.750769159
Ecoponto Dragão Do Mar,Ecoponto,Rua Almirante Jaceguai x Av. Pessoa Anta,Praia de Iracema,Sim,"08:00–12:00, 14:00–17:00",-38.58264351,-3.753824964
Ecoponto Centro,Ecoponto,Av. Alberto Nepomuceno x Tv. Icó,Centro,Sim,"08:00–12:00, 14:00–17:00",-38.51952647,-3.721036804
Ecoponto Centro II,Ecoponto,"Rua Guilherme Rocha, 1427",Centro,Sim,"08:00–12:00, 14:00–17:00",-38.52400538,-3.722220238
Ecoponto São Sebastião,Ecoponto,"Rua Clarindo de Queiroz, em frente ao nº 1596",Centro,Sim,"08:00–12:00, 14:00–17:00",-38.53854023,-3.723701106
Rede De Catadores,Associação de Catadores,"Rua Waldemar Holanda, s/n",João XXIII,Sim,Comercial (8:00 - 16:00),-38.59282802,-3.770688722
Aran,Associação de Catadores,"Rua Alípio Martins, 100",Bonsucesso,Sim,Comercial (8:00 - 16:00),-38.59390615,-3.776234851
Ascajan,Associação de Catadores,"Rua Estrada do Itaperi, 1665",Jangurussu,Sim,Comercial (8:00 - 16:00),-38.5286685,-3.823922666
Mulheres Luta Em Cena,Associação de Catadores,"Travessa do Colégio, 96",Serrinha,Sim,Comercial (8:00 - 16:00),-38.54262305,-3.782768093
Raio De Sol,Associação de Catadores,"Rua Waldemar Holanda, s/n",João XXIII,Sim,Comercial (8:00 - 16:00),-38.59096301,-3.772379576
Reciclando,Associação de Catadores,"Avenida Plácido Castelo, 284",Jardim das Oliveiras,Sim,Comercial (8:00 - 16:00),-38.50888599,-3.784278459
Rosa Virgínia,Associação de Catadores,"Rua 07, 20 Lot. Santa Terezinha",Parque Santa Rosa,Sim,Comercial (8:00 - 16:00),-38.59004714,-3.804856746
Socrelp,Associação de Catadores,"Rua General Costa Matos, 8A",Pirambu,Sim,Comercial (8:00 - 16:00),-38.54569395,-3.713201038
Viva A Vida,Associação de Catadores,"Av Domingos Olímpio, 8",Benfica,Sim,Comercial (8:00 - 16:00),-38.54282006,-3.733020746
Acores,Associação de Catadores,"Rua Freire Alemão, 210",Serrinha,Sim,Comercial (8:00 - 16:00),-38.54329817,-3.783383621
Brisa Mar,Associação de Catadores,"Av. Vicente de Castro, 6870",Cais do Porto,Sim,Comercial (8:00 - 16:00),-38.47138515,-3.709730926
Maravilha,Associação de Catadores,"Rua Sol, 10, Conj. Planalto Universo",Vila União,Sim,Comercial (8:00 - 16:00),-38.52888166,-3.762930533
Moura Brasil,Associação de Catadores,"Rua do Trilho, 1263",Moura Brasil,Sim,Comercial (8:00 - 16:00),-38.53349759,-3.719427791
Ascabonja,Associação de Catadores,"Rua Reginaldo França Rodrigues, 150b",Siqueira,Sim,Comercial (8:00 - 16:00),-38.61013357,-3.799284274
Asca-Rosa,Associação de Catadores,"Rua 101, 1192 altos Conj. Rosalina",Parque Dois Irmãos,Sim,Comercial (8:00 - 16:00),-38.5467991,-3.805251176
Lixeira Dragão do Mar,Lixeira Subterrânea,"Av. Pessoa Anta, s/n",Centro,Não,Aberto 24h,-38.51997085,-3.720922248
Lixeira Rachel de Queiroz,Lixeira Subterrânea,"Rua Edgar Falcão, s/n",Presidente Kennedy,Não,Aberto 24h,-38.57228569,-3.734959102
Lixeira Campo do América,Lixeira Subterrânea,"Rua José Vilar, s/n",Meireles,Não,Aberto 24h,-38.5029999,-3.730806318
Lixeira Praça das Flores,Lixeira Subterrânea,"Av. Desembargador Moreira, s/n",Aldeota,Não,Aberto 24h,-38.49878097,-3.73834215
Lixeira Luiza Tavora,Lixeira Subterrânea,"Av. Santos Dumont, 1589",Aldeota,Não,Aberto 24h,-38.50967982,-3.731070987
Lixeira Mercado Joaquim Távora,Lixeira Subterrânea,"Praça Joaquim Távora, s/n",Joaquim Távora,Não,Aberto 24h,-38.51664395,-3.752314025
Lixeira Via Expressa,Lixeira Subterrânea,"Avenida Almirante Henrique Saboia, s/n",Mucuripe,Não,Aberto 24h,-38.48028287,-3.723966457
Lixeira Cais do Porto,Lixeira Subterrânea,"Avenida Vicente de Castro, s/n",Cais do Porto,Não,Aberto 24h,-38.47142186,-3.709329031
Lixeira do Morro Santiago,Lixeira Subterrânea,"Rua Santiago, s/n",Barra do Ceará,Não,Aberto 24h,-38.58471308,-3.698599779
Lixeira Morro Santa Terezinha,Lixeira Subterrânea,"Rua Manoel DIas Branco, s/n",Vicente Pinzón,Não,Aberto 24h,-38.47814013,-3.722412563
Lixeira Beira Mar,Lixeira Subterrânea,"Avenida Baira Mar, s/n",Meireles,Não,Aberto 24h,-38.49944032,-3.72494031
Lixeira Ecoponto Cristo Redentor,Lixeira Subterrânea,"Avenida Presidente Castelo Branco, s/n",Cristo Redentor,Não,Aberto 24h,-38.56659809,-3.708852827
Lixeira José Bonifácio,Lixeira Subterrânea,"Avenida Presidente Castelo Branco, s/n",Cristo Redentor,Não,Aberto 24h,-38.56234368,-3.71023018
Lixeira Vicente Saboia,Lixeira Subterrânea,"Avenida Presidente Castelo Branco, 3258",Cristo Redentor,Não,Aberto 24h,-38.5601526,-3.710794196
Lixeira da Pasteur,Lixeira Subterrânea,"Avenida Presidente Castelo Branco, s/n",Carlito Pamplona,Não,Aberto 24h,-38.55743196,-3.711702264
Lixeira do Ecoponto Leste Oeste,Lixeira Subterrânea,"Avenida Presidente Castelo Branco, s/n",Carlito Pamplona,Não,Aberto 24h,-38.55522256,-3.711999729
Lixeira Santa Rosa,Lixeira Subterrânea,"Avenida Presidente Castelo Branco, s/n",Pirambu,Não,Aberto 24h,-38.55318928,-3.712333197
Lixeira da Associação,Lixeira Subterrânea,"Avenida Presidente Castelo Branco, s/n",Carlito Pamplona,Não,Aberto 24h,-38.55194336,-3.71280345
Lixeira da Travessa Luís,Lixeira Subterrânea,"Avenida Presidente Castelo Branco, s/n",Pirambu,Não,Aberto 24h,-38.54886362,-3.713573613
Lixeira da Areninha,Lixeira Subterrânea,"Rua Santa Inês, s/n",Jacarecanga,Não,Aberto 24h,-38.54531374,-3.713300313
Lixeira Morro do Ouro,Lixeira Subterrânea,"Avenida José Jatahy, s/n",Jacarecanga,Não,Aberto 24h,-38.54597505,-3.725355989
Lixeira da Duque de Caxias,Lixeira Subterrânea,"Avenida Duque de Caxias, s/n",Farias Brito,Não,Aberto 24h,-38.54244447,-3.727795525
Lixeira Praça Nossa Senhora da Saúde,Lixeira Subterrânea,"Praça Nossa Senhora da Saúde, s/n",Mucuripe,Não,Aberto 24h,-38.48420377,-3.724616649
Lixeira Mercado dos peixes,Lixeira Subterrânea,"Rua Vila Del Mar, s/n",Cais do Porto,Não,Aberto 24h,-38.47918339,-3.721486281
I. Bigtainer Praça do Ferreira,Lixeira Subterrânea,Rua Major Facundo,Centro,Não,Aberto 24h,-38.52747166,-3.728090502
II. Bigtainer Praça Murilo Borges,Lixeira Subterrânea,"Rua Floriano Peixoto, s/n",Centro,Não,Aberto 24h,-38.52830539,-3.731227661
III. Bigtainer Praça José de Alencar,Lixeira Subterrânea,"Rua Guilherme Rocha, s/n",Centro,Não,Aberto 24h,-38.53133246,-3.726034895
189 - Atacadão Fortaleza Osório,Coleta de Pilhas,"Av. General Osorio De Paiva, 6297",Canindezinho,Não,Verificar com a empresa,-38.60714386,-3.81016998
304 - Atacadão Fortaleza Br 116,Coleta de Pilhas,"Avenida Alberto Craveiro, 507",Dias Macedo,Não,Verificar com a empresa,-38.52105819,-3.802907572
305 - Atacadão Barra Do Ceará,Coleta de Pilhas,"Avenida Francisco Sá, 3175",Carlito Pamplona,Não,Verificar com a empresa,-38.55314997,-3.718920017
80 - Atacadão Fortaleza,Coleta de Pilhas,"Av. Senador Carlos Jereissati, S/N",Serrinha,Não,Verificar com a empresa,-38.54648933,-3.778821877
Assaí 189,Coleta de Pilhas,"Br-116, 320",Cidade Dos Funcionários,Não,Verificar com a empresa,-38.52552003,-3.743540013
Assaí 23,Coleta de Pilhas,"Avenida Bezerra De Menezes, 571",Farias Brito,Não,Verificar com a empresa,-38.54141002,-3.731050013
Assaí 27,Coleta de Pilhas,"Avenida Washington Soares, 5657",Edson Queiroz,Não,Verificar com a empresa,-38.47944002,-3.80033998
Assaí 47,Coleta de Pilhas,"Av.: Godofredo Maciel, 86",Parangaba,Não,Verificar com a empresa,-38.56422184,-3.777514871
Carrefour - Fortaleza,Coleta de Pilhas,"Avenida Godofredo Maciel, 3190",Parangaba,Não,Verificar com a empresa,-38.57109963,-3.800810195
Carrefour - Fortaleza Barão,Coleta de Pilhas,"Avenida Barão De Studart, 2200",Joaquim Távora,Não,Verificar com a empresa,-38.50922578,-3.742639375
Casas Bahia Fortaleza - Centro,Coleta de Pilhas,"Rua General Sampaio, 1267",Centro,Não,Verificar com a empresa,-38.53157001,-3.72974998
Casas Bahia Fortaleza - Messejana,Coleta de Pilhas,"Rua Padre Pedro De Alencar, 316",Messejana,Não,Verificar com a empresa,-38.49392998,-3.830399999
Casas Bahia Fortaleza - Praça Do Ferreira,Coleta de Pilhas,"Travessa Pará, 20",Centro,Não,Verificar com a empresa,-38.52707705,-3.726987915
Central Tec B&B Com Ser,Coleta de Pilhas,"Rua Monsenhor Salazar, 624",Tauape,Não,Verificar com a empresa,-38.51407999,-3.756189981
Droga Raia - Ft Aldeota 3,Coleta de Pilhas,"Av. Senador Virgílio Távora, 1550",Aldeota,Não,Verificar com a empresa,-38.49430004,-3.739869997
Drogasil - Coco 1,Coleta de Pilhas,"Av. Padre Antônio Tomás, 3416",Cocó,Não,Verificar com a empresa,-38.48142996,-3.746170003
Drogasil - Coco 2,Coleta de Pilhas,"Av. Santos Dumont, 5916",Cocó,Não,Verificar com a empresa,-38.47830658,-3.742765913
Drogasil - Ft Aldeota 1,Coleta de Pilhas,"Av. Santos Dumont, 2390",Aldeota,Não,Verificar com a empresa,-38.50344998,-3.734649999
Drogasil - Ft Aldeota 2,Coleta de Pilhas,"Av. Santos Dumont, 1261",Aldeota,Não,Verificar com a empresa,-38.51249003,-3.731230015
Drogasil - Ft Aldeota 4,Coleta de Pilhas,"Av. Barão De Studart, 1501",Aldeota,Não,Verificar com a empresa,-38.50702997,-3.737769995
Drogasil - Ft Aldeota 5 (Barbosa Freitas),Coleta de Pilhas,"Av. Santos Dumont, 3030",Aldeota,Não,Verificar com a empresa,-38.49786998,-3.736509985
Drogasil - Ft Aldeota 6 (Marcos Macedo),Coleta de Pilhas,"Av. Desembargador Moreira, 940",Aldeota,Não,Verificar com a empresa,-38.49801004,-3.73410002
Drogasil - Ft Aldeota 7 (Vicente Linhares),Coleta de Pilhas,"Rua Vicente Linhares, Sn",Aldeota,Não,Verificar com a empresa,-38.48990205,-3.745484174
Drogasil - Ft Aldeota 8,Coleta de Pilhas,"Avenida Senador Virgílio Távora, 2201",Dionisio Torres,Não,Verificar com a empresa,-38.49588003,-3.745469988
Drogasil - Ft Cambeba 1 (Pedro Lazar),Coleta de Pilhas,"Avenida Santos Dumont, 96999",Cocó,Não,Verificar com a empresa,-38.48169126,-3.741643476
Drogasil - Ft Cid Dos Func 1,Coleta de Pilhas,"Rua Chico Lemos, 1011",Cidade dos Funcionários,Não,Verificar com a empresa,-38.49697001,-3.795960016
Drogasil - Ft Fatima 1 (Treze Maio),Coleta de Pilhas,"Avenida Treze De Maio, 1948",Fátima,Não,Verificar com a empresa,-38.53471125,-3.744699959
Drogasil - Ft Gerardo 1,Coleta de Pilhas,"Avenida Bezerra De Menezes, 720",São Gerardo,Não,Verificar com a empresa,-38.55140997,-3.732779996
Drogasil - Ft Guararapes 1 (Miguel Dias),Coleta de Pilhas,"Av. Coronel Miguel Dias, Sn",Guararapes,Não,Verificar com a empresa,-38.48747187,-3.766835318
Drogasil - Ft Jardim Cearense 1,Coleta de Pilhas,"Av. Godofredo Maciel, 3101",Jardim Cearense,Não,Verificar com a empresa,-38.57177003,-3.80302001
Drogasil - Ft Joaquim Tavora 1,Coleta de Pilhas,"Avenida Antônio Sales, 666",Joaquim Távora,Não,Verificar com a empresa,-38.51575,-3.741379997
Drogasil - Ft Joquei Clube 2 (Manoel Lourenco),Coleta de Pilhas,"Avenida Senador Fernandes Távora , 820",Jóquei Clube,Não,Verificar com a empresa,-38.58015998,-3.763170011
Drogasil - Ft Joquie Clube I,Coleta de Pilhas,"Avenida Augusto Dos Anjos, 352",Jóquei Clube,Não,Verificar com a empresa,-38.57188998,-3.771879982
Drogasil - Ft Luciano Cavalcante 1 (Philomeno Gomes),Coleta de Pilhas,Avenida Coronel José Philomeno Gomes,Engenheiro Luciano Cavalcante,Não,Verificar com a empresa,-38.4881812,-3.77843355
Drogasil - Ft Meireles 1,Coleta de Pilhas,"Av. Da Abolição, 3038",Meireles,Não,Verificar com a empresa,-38.49207004,-3.727110016
Drogasil - Ft Meireles 3,Coleta de Pilhas,"Av. Dom Luís, 1139",Meireles,Não,Verificar com a empresa,-38.49111015,-3.735246224
Drogasil - Ft Meireles 4,Coleta de Pilhas,"Av. Rui Barbosa, 783",Meireles,Não,Verificar com a empresa,-38.50741998,-3.730000012
Drogasil - Ft Meireles 5 (Bruno),Coleta de Pilhas,"Av. Monsenhor Tabosa, 1400",Meireles,Não,Verificar com a empresa,-38.50682001,-3.72455999
Drogasil - Ft Meireles 6,Coleta de Pilhas,"Rua Tibúrcio Cavalcante, 801",Meireles,Não,Verificar com a empresa,-38.50118997,-3.731849982
Drogasil - Ft Meireles 7 (Republica Do Libano),Coleta de Pilhas,"Avenida Senador Virgílio Távora, 538",Meireles,Não,Verificar com a empresa,-38.49187544,-3.732627414
Drogasil - Ft Messejana 1,Coleta de Pilhas,"Av. Frei Cirilo, 4080",Messejana,Não,Verificar com a empresa,-38.49648998,-3.819769986
Drogasil - Ft Messejana 2 (Jose Hipolito),Coleta de Pilhas,"R Jose Hipolito, 157",Messejana,Não,Verificar com a empresa,-38.50562181,-3.833152245
Drogasil - Ft Montese 1 (Alberto Magno),Coleta de Pilhas,"R Desembargador Praxedes , 933",Montese,Não,Verificar com a empresa,-38.54706001,-3.761079984
Drogasil - Ft Papicu 1 (Almeida Prado),Coleta de Pilhas,"Av. Santos Dumont, 6385, 0",Papicu,Não,Verificar com a empresa,-38.47543003,-3.743529997
Drogasil - Ft Papicu 2 (Sh Riomar Ii),Coleta de Pilhas,"Rua Desembargador Lauro Nogueira, 1500",Papicu,Não,Verificar com a empresa,-38.47141888,-3.742337356
Drogasil - Ft Parquelandia 1 (Jovita Feitosa),Coleta de Pilhas,"Av. Jovita Feitosa, 3194",Parquelandia,Não,Verificar com a empresa,-38.56639002,-3.741809988
Drogasil- Ft Parquelandia 2 (Dom Lino),Coleta de Pilhas,"Av. Bezerra De Menezes, 1409",São Gerardo,Não,Verificar com a empresa,-38.55728996,-3.734350011
Drogasil - Ft Pref J Walter 1 (Av I),Coleta de Pilhas,Avenida I,Prefeito José Walter,Não,Verificar com a empresa,-38.58915157,-3.814044854
Drogasil - Ft Salinas 1 (Rogaciano Leite),Coleta de Pilhas,"Avenida Rogaciano Leite, 2080",Salinas,Não,Verificar com a empresa,-38.49907001,-3.773109984
Drogasil - Ft Sapiranga 1,Coleta de Pilhas,"Av. Edilson Brasil Soares, 1060",Sapiranga,Não,Verificar com a empresa,-38.47653996,-3.789209986
Drogasil - Ft Serrinha 1 (Bernardo Manuel),Coleta de Pilhas,"Av Doutor Silas Munguba , 2915",Serrinha,Não,Verificar com a empresa,-38.54764004,-3.787640014
Drogasil - Ft Vila Velha 1 (Carius),Coleta de Pilhas,"Rua Cariús, 820",Vila Velha,Não,Verificar com a empresa,-38.59614,-3.720760012
Drogasil - Ft Vl M Satiro 1 (Waldir Diogo),Coleta de Pilhas,"Rua Waldir Diogo, 1138",Novo Mondubim,Não,Verificar com a empresa,-38.58819001,-3.802070005
Drogasil - Meireles 2,Coleta de Pilhas,"Av. Desembargador Moreira, 707",Meireles,Não,Verificar com a empresa,-38.49699763,-3.732243291
Drogasil - S J Tauape 1,Coleta de Pilhas,"Av. Pontes Vieira, 1486",Tauape,Não,Verificar com a empresa,-38.50843998,-3.752249984
Drogasil - Torres 1,Coleta de Pilhas,"Av. Antônio Sales, 1840",Dionísio Torres,Não,Verificar com a empresa,-38.50757002,-3.743939998
Extra Hiper 1339,Coleta de Pilhas,"Avenida Washington Soares, 85",Guararapes,Não,Verificar com a empresa,-38.48841997,-3.757640009
Extra Hiper 1344,Coleta de Pilhas,"Av: Dos Expedicionários, 4444",Montese,Não,Verificar com a empresa,-38.53850997,-3.755679984
Extra Hiper 1375,Coleta de Pilhas,"Avenida Senador Fernandes Távora, 45",Jóquei Clube,Não,Verificar com a empresa,-38.57241996,-3.768149993
Extra Hiper 1398,Coleta de Pilhas,"Avenida Aguanambi, 1393",Fátima,Não,Verificar com a empresa,-38.52381004,-3.748799993
Extra Hiper 2059,Coleta de Pilhas,"Avenida Mister Hull, 4300",Presidente Kennedy,Não,Verificar com a empresa,-38.58264002,-3.73809999
Fortalmix Comercio De Utilidades E,Coleta de Pilhas,"R Des. Lauro Nogueira, 1500",Papicu,Não,Verificar com a empresa,-38.47141888,-3.742337356
J & W Brito Comercio E Servicos De Aparelhos Eletronicos Ltda,Coleta de Pilhas,"Rua Monsenhor Salazar, 640",Tauape,Não,Verificar com a empresa,-38.51400003,-3.756189981
Kalunga - Ce-For-Shop Kennedy,Coleta de Pilhas,"Avenida Sargento Hermínio Sampaio, 3100",Presidente Kennedy,Não,Verificar com a empresa,-38.56748001,-3.727520017
Kalunga - Ce-For-Shop Riomar,Coleta de Pilhas,"Lauro Nogueira, 1500",Papicu,Não,Verificar com a empresa,-38.47141888,-3.742337356
Kalunga - Ce-For-Shp Iguatemi,Coleta de Pilhas,"Avenida Washington Soares, 85",Edson Queiroz,Não,Verificar com a empresa,-38.48841997,-3.757640009
Kalunga - Ce-For-Sjoquei North,Coleta de Pilhas,"Avenida Lineu Machado, 419",Jóquei Clube,Não,Verificar com a empresa,-38.57542999,-3.76332998
Kalunga - Ce-For- S North,Coleta de Pilhas,"Avenida Bezerra De Menezes, 2450",Presidente Kennedy,Não,Verificar com a empresa,-38.56524059,-3.735656999
Leroy Merlin Fortaleza - Ce,Coleta de Pilhas,"Avenida Sebastião De Abreu, 600",Edson Queiroz,Não,Verificar com a empresa,-38.56768997,-3.795600014
Loja 326 - Wsmix,Coleta de Pilhas,"Avenida Washington Soares, 2200",Engenheiro Luciano Cavalcante,Não,Verificar com a empresa,-38.48150004,-3.779750002
Mercado Extra 0222,Coleta de Pilhas,Avenida Oliveira Paiva,Cidade Dos Funcionários,Não,Verificar com a empresa,-38.48525521,-3.796151642
Mercado Extra 1400,Coleta de Pilhas,"Avenida Washington Soares, 4075",Sapiranga,Não,Verificar com a empresa,-38.48000999,-3.792919984
Mercado Extra 1404,Coleta de Pilhas,"Avenida Deputado Oswaldo Studart, 600",Fátima,Não,Verificar com a empresa,-38.52997996,-3.755399987
Multicoisas - Loja 148,Coleta de Pilhas,"Avenida Sargento Hermínio Sampaio, 3100",Presidente Kennedy,Não,Verificar com a empresa,-38.56748001,-3.727520017
Multicoisas - Loja 216,Coleta de Pilhas,"Avenida Santos Dumont, 3060",Aldeota,Não,Verificar com a empresa,-38.49769002,-3.736600007
Multicoisas Loja 247,Coleta de Pilhas,"Rua Desembargador Lauro Nogueira, 1500",Papicu,Não,Verificar com a empresa,-38.47141888,-3.742337356
Multicoisas - Loja 326,Coleta de Pilhas,"Avenida Washington Soares, 2200",Engenheiro Luciano Cavalcante,Não,Verificar com a empresa,-38.48150004,-3.779750002
Multicoisas - Loja 67,Coleta de Pilhas,"Washington Soares, 85",Edson Queiroz,Não,Verificar com a empresa,-38.48841997,-3.757640009
Normatel Antonio Sales,Coleta de Pilhas,"Avenida Antônio Sales, 3410",Dionísio Torres,Não,Verificar com a empresa,-38.49154209,-3.748841626
Normatel Bezerra De Menezes,Coleta de Pilhas,"Avenida Bezerra De Menezes, 78",Monte Castelo,Não,Verificar com a empresa,-38.54552998,-3.73156001
Normatel Cambeba,Coleta de Pilhas,"Avenida Washington Soares, 4900, .",Cambeba,Não,Verificar com a empresa,-38.47842046,-3.846476405
Normatel Dede Brasil,Coleta de Pilhas,"Avenida Dedé Brasil, 435",Parangaba,Não,Verificar com a empresa,-38.55087482,-3.786243489
Normatel Santos Dumont,Coleta de Pilhas,"Avenida Santos Dumont, 3870",Aldeota,Não,Verificar com a empresa,-38.48900997,-3.739509994
Normatel Washington Soares,Coleta de Pilhas,"Avenida Washington Soares, 1500",Edson Queiroz,Não,Verificar com a empresa,-38.48232004,-3.772649986
Pão De Açucar 1253,Coleta de Pilhas,"Avenida Engenheiro Santana Júnior, 2277",Cocó,Não,Verificar com a empresa,-38.48644497,-3.742790871
Pão De Açúcar 2375,Coleta de Pilhas,"Avenida Bezerra De Menezes, 1498",São Gerardo,Não,Verificar com a empresa,-38.55816,-3.734150018
Pão De Açucar Loja 0255,Coleta de Pilhas,"Rua Doutor Costa Araújo, 1132",Fátima,Não,Verificar com a empresa,-38.53141997,-3.746649993
Pão De Açucar Loja 1004,Coleta de Pilhas,"Avenida Da Abolição, 2900",Meireles,Não,Verificar com a empresa,-38.47907437,-3.722143961
Pão De Açucar Loja 1209,Coleta de Pilhas,"Avenida Santos Dumont, 3130",Aldeota,Não,Verificar com a empresa,-38.49727997,-3.736739985
Pão De Açucar Loja 1220,Coleta de Pilhas,"Avenida Santos Dumont, 1169",Aldeota,Não,Verificar com a empresa,-38.51328002,-3.731300004
Pão De Açucar Loja 1249,Coleta de Pilhas,"Avenida Dom Luís, 500",Aldeota,Não,Verificar com a empresa,-38.49677002,-3.733619989
Pão De Açucar Loja 1250,Coleta de Pilhas,"Avenida Washington Soares, 4040",Parque Manibura,Não,Verificar com a empresa,-38.47824403,-3.846632245
Pão De Açucar Loja 1252,Coleta de Pilhas,"Rua Bárbara De Alencar, 1887",Centro,Não,Verificar com a empresa,-38.50821759,-3.739883372
Pão De Açucar Loja 1254,Coleta de Pilhas,"Avenida Antônio Sales, 2477",Joaquim Távora,Não,Verificar com a empresa,-38.50146782,-3.745708278
Pão De Açucar Loja 1257,Coleta de Pilhas,"Avenida Da Abolição, 3790",Meireles,Não,Verificar com a empresa,-38.48580004,-3.725859981
Pão De Açucar Loja 1298,Coleta de Pilhas,"Avenida Senador Virgílio Távora, 2270",Dionisio Torres,Não,Verificar com a empresa,-38.49651001,-3.746799987
Pão De Açucar Loja 2374,Coleta de Pilhas,"Avenida Washington Soares, 1500",Edson Queiroz,Não,Verificar com a empresa,-38.48232004,-3.772649986
Philips - Central Tec B&B Com Ser,Coleta de Pilhas,"Rua Monsenhor Salazar, 624",Tauape,Não,Verificar com a empresa,-38.51407999,-3.756189981
Escola Municipal Dois De Dezembro,Escolas Municipais PEVs,"Rua Araquém, 860",Barra Do Ceará,Não,7:00 às 16:00,-38.58034347,-3.709094479
Escola Municipal Nossa Senhora Aparecida,Escolas Municipais PEVs,"Rua Teresa Cristina, 112",Centro,Não,7:00 às 16:00,-38.5354673,-3.721528016
Escola Municipal Sao Rafael,Escolas Municipais PEVs,"Rua Dos Tabajaras, 244",Praia De Iracema,Não,7:00 às 16:00,-38.51780027,-3.719331842
Escola Municipal Frei Tito De Alencar Lima,Escolas Municipais PEVs,"Av. Dioguinho, 5925",Praia Do Futuro Ii,Não,7:00 às 16:00,-38.44064926,-3.765167801
Escola Municipal Antonio Sales,Escolas Municipais PEVs,"Rua Tavares Iracema, 675",Rodolfo Teófilo,Não,7:00 às 16:00,-38.55737171,-3.748437753
Escola Municipal De Tempo Integral Professor Joaquim Francisco De Sousa Filho,Escolas Municipais PEVs,"Rua Joaquim Marques, 13",Presidente Kennedy,Não,7:00 às 16:00,-38.57056303,-3.730729422
Escola Municipal Geisa Firmo Goncalves,Escolas Municipais PEVs,"Rua Zuleica Pontes, 1260",Planalto Ayrton Senna,Não,7:00 às 16:00,-38.56614658,-3.831986418
Escola Municipal Haroldo Jorge Braun Vieira,Escolas Municipais PEVs,"Av. Lauro Vieira Chaves, 55",Aeroporto,Não,7:00 às 16:00,-38.52794714,-3.773442555
Escola Municipal Marcos Valentim Pereira De Souza,Escolas Municipais PEVs,"Rua Freire Alemão, 91",Serrinha,Não,7:00 às 16:00,-38.54262187,-3.78210416
Escola Municipal De Tempo Integral Filgueiras Lima,Escolas Municipais PEVs,"Av. Dos Expedicionários, 3910",Jardim América,Não,7:00 às 16:00,-38.53813471,-3.752454437
Escola Municipal Jonathan Da Rocha Alcoforado,Escolas Municipais PEVs,"Rua Maria Gomes De Sá, 1030",Mondubim,Não,7:00 às 16:00,-38.58087155,-3.825943818
Escola Municipal Herbert De Souza,Escolas Municipais PEVs,"Rua Urucutuba, 1599",Bom Jardim,Não,7:00 às 16:00,-38.60800574,-3.797150095
Escola Municipal Narciso Pessoa De Araujo,Escolas Municipais PEVs,"Av. General Osório De Paiva, 4841",Canindezinho,Não,7:00 às 16:00,-38.5987133,-3.801750131
Escola Municipal Professor Jose Cirio Pereira Filho,Escolas Municipais PEVs,"Rua Quartzo Rosa, 100",Siqueira,Não,7:00 às 16:00,-38.62306898,-3.805374135
Escola Municipal Tertuliano Cambraia,Escolas Municipais PEVs,"Rua Monsenhor Rosa, 947",Carlito Pamplona,Não,7:00 às 16:00,-38.55512092,-3.712855643
Escola Municipal Professor Manuel Eduardo Pinheiro Campos,Escolas Municipais PEVs,"Rua Miriú, 500",Edson Queiroz,Não,7:00 às 16:00,-38.44554253,-3.791118092
Escola Municipal Professora Aida Santos E Silva,Escolas Municipais PEVs,"Av. Trajano De Medeiros, 813",Vicente Pinzón,Não,7:00 às 16:00,-38.46550581,-3.728171931
Escola Municipal Washington Soares,Escolas Municipais PEVs,"Rua Do Corrente, 400",Edson Queiroz,Não,7:00 às 16:00,-38.47710461,-3.778090509
Escola Municipal De Tempo Integral Professora Antonieta Cals,Escolas Municipais PEVs,"Rua Monsenhor Salazar, 1480",Tauape,Não,7:00 às 16:00,-38.5061886,-3.755427438
Escola Municipal Professor Jose Militao De Albuquerque,Escolas Municipais PEVs,"Rua 1145, 14",Conjunto Ceará I,Não,7:00 às 16:00,-38.61025941,-3.759795083
Escola Municipal Raimundo De Moura Matos,Escolas Municipais PEVs,"Av. Dois De Maio, 1300",Passaré,Não,7:00 às 16:00,-38.53818349,-3.813637953
Escola Municipal Professora Fernanda Maria De Alencar Colares,Escolas Municipais PEVs,"Av. Profº José Artur De Carvalho, 1540",Lagoa Redonda,Não,7:00 às 16:00,-38.45177387,-3.820316193
Escola Municipal Professora Maria Antonezia Meireles E Sa,Escolas Municipais PEVs,"Rua Coronel Virgílio Távora, 1340",Barroso,Não,7:00 às 16:00,-38.50548265,-3.818307995
Mercado Das Flores,Ilha Ecológica,"Rua Prof. Mário Rocha, 11",Joaquim Távora,Não,Aberto 24h,-38.5165089,-3.7523078
Parque Rachel De Queiroz,Ilha Ecológica,"Rua Edgar Falcão, 129",Presidente Kennedy,Não,Aberto 24h,-38.57089942,-3.732320263
Praca Dragão Do Mar,Ilha Ecológica,Avenida Pessoa Anta,Centro,Não,Aberto 24h,-38.51994383,-3.72093128
Campo Do América,Ilha Ecológica,Rua José Vilar,Meireles,Não,Aberto 24h,-38.50301735,-3.730836934
Praça Das Flores,Ilha Ecológica,Avenida Desembargador Moreira,Aldeota,Não,Aberto 24h,-38.49878056,-3.738370324
Praca Luiza Távora,Ilha Ecológica,"Avenida Santos Dumont, 1589",Aldeota,Não,Aberto 24h,-38.50968119,-3.731084945
Lagoa Do Mondubim,Ilha Ecológica,"Rua São Lázaro, 499",Novo Modubim,Não,Aberto 24h,-38.5800054,-3.8019874
Lagoa Da Maraponga,Ilha Ecológica,"Avenida Godofredo Maciel, 1494",Maraponga,Não,Aberto 24h,-38.5674177,-3.79144
Conjunto Esperança,Ilha Ecológica,"Avenida Contôrno Norte, 981",Conjunto Esperança,Não,Aberto 24h,-38.5880618,-3.8140593
Guararapes,Ilha Ecológica,"Rua Olavo Lima Silva, 180",Guararapes,Não,Aberto 24h,-38.4892689,-3.7585451
Regional V,Ilha Ecológica,"Avenida Oscar Araripe, 1030",Bom Jardim,Não,Aberto 24h,-38.6005641,-3.7907004
Marco Zero,Ilha Ecológica,"Avenida Rad. José Lima Verde, 289",Barra do Ceará,Não,Aberto 24h,-38.5865441,-3.6948105
Praça Argentina Castelo Branco,Ilha Ecológica,"Rua Dr. Costa Araújo, 860",Fátima,Não,Aberto 24h,-38.5294617,-3.7474174
Praça Cidade 2000,Ilha Ecológica,"Avenida Central, 190a",Cidade 2000,Não,Aberto 24h,-38.4714894,-3.7501026
Lago Jacarey,Ilha Ecológica,Avenida Viena Weyne,Cidade dos Funcionários,Não,Aberto 24h,-38.4895889,-3.8010029
Parque Del Sol,Ilha Ecológica,"Rua Joãozito Arruda, 405",Parque Iracema,Não,Aberto 24h,-38.4963337,-3.8063967
Calçadão Manoel Sátiro,Ilha Ecológica,"Rua Francisco Glicério, 1707",Manuel Sátiro,Não,Aberto 24h,-38.5766677,-3.7948988
Thiago Lanches,Ilha Ecológica,"Rua Fernando Farias de Melo, 72",Manuel Sátiro,Não,Aberto 24h,-38.5782518,-3.7907517
Polo Conjunto Ceará I,Ilha Ecológica,"Avenida Ministro Albuquerque Lima, 738",Conjunto Ceará I,Não,Aberto 24h,-38.6056743,-3.7698118
Parque Rachel De Queiroz,Ilha Ecológica,"Rua Licurgo Montenegro, s/n",Presidente Kennedy,Não,Aberto 24h,-38.5721264,-3.734933
Praça Maraponga Mart Moda,Ilha Ecológica,Praça das Artes MRV,Dendê,Não,Aberto 24h,-38.5622275,-3.7948349
Praca Braz Francesco,Ilha Ecológica,Rua Braz de Francesco,Presidente Kennedy,Não,Aberto 24h,-38.5674422,-3.7341933
Parquelandia,Ilha Ecológica,"Rua Padre Guerra, 2396",Parquelândia,Não,Aberto 24h,-38.5657044,-3.7408063
Aracapé,Ilha Ecológica,"Avenida C, 823",Aracapé,Não,Aberto 24h,-38.5897109,-3.8293757
AGEFIS,Ilha Ecológica,"Rua Francisco Jose Albuquerque Pereira, 414",Cajazeiras,Não,Aberto 24h,-38.5049798,-3.8118413
Lixeira Dragão do Mar,Miniecoponto,Avenida Pessoa Anta,Centro,Não,Aberto 24h,-38.51997085,-3.720922248
Lixeira Rachel de Queiroz,Miniecoponto,Rua Edgar Falcão,Presidente Kennedy,Não,Aberto 24h,-38.57228569,-3.734959102
Lixeira Campo do América,Miniecoponto,Rua José Vilar,Meireles,Não,Aberto 24h,-38.5029999,-3.730806318
Lixeira Praça das Flores,Miniecoponto,Avenida Desembargador Moreira,Aldeota,Não,Aberto 24h,-38.49878097,-3.73834215
Lixeira Luiza Tavora,Miniecoponto,"Avenida Santos Dumont, 1589",Aldeota,Não,Aberto 24h,-38.50967982,-3.731070987
Lixeira Mercado Joaquim Távora,Miniecoponto,Praça Joaquim Távora,Joaquim Távora,Não,Aberto 24h,-38.51664395,-3.752314025
Centro de Recondicionamento Tecnológico - CITINOVA,Centro de Recondicionamento Tecnológico - CITINOVA,"Rua dos Tremembés, 2",Praia de Iracema,Não,8:00-17:00,-38.51584171,-3.71894888
CUCA Barra do Ceará,Retorna Machine,"Av. Pres. Castelo Branco, 6417",Barra do Ceará,Sim,"Seg a Sex 8h às 22h,  Sáb 8h às 18h",-38.58762196,-3.700602993
CUCA Mondubim,Retorna Machine,R. Prof. Glauco Lobo,Novo Mundubim,Sim,"Seg a Sex 8h às 22h,  Sáb 8h às 18h",-38.58006365,-3.806146158
CUCA Jangurussu,Retorna Machine,"Av. Gov. Leonel Brizola, s/n",Jangurussu,Sim,"Seg a Sex 8h às 22h,  Sáb 8h às 18h",-38.52068119,-3.831007116
CUCA José Walter,Retorna Machine,R. 69 - Pref. José Walter,Prefeito José Walter,Sim,"Seg a Sex 8h às 22h, Sáb 8h às 18h",-38.55499981,-3.830537887
CUCA Pici,Retorna Machine,"R. Cel. Matos Dourado, 1499",Pici,Sim,"Seg a Sex 8h às 22h,  Sáb 8h às 18h",-38.58217275,-3.752488737
"Praça Terminal Conjunto Ceará, Sn",Retorna Machine,Av. L,Conjunto Ceará II,Sim,24h,-38.607545,-3.772986
"Praça Terminal Papicu, Sn",Retorna Machine,R. Pereira de Miranda,Papicu,Sim,24h,-38.484761,-3.738568
"Praça Terminal Parangaba, Sn",Retorna Machine,Av. Carlos Amora,Parangaba,Sim,24h,-38.56358,-3.775878
"Praça Terminal Antonio Bezerra, Sn",Retorna Machine,Rod. Pres. Juscelino Kubitschek,Padre Andrade,Sim,24h,-38.584548,-3.73752
"Praça Terminal Lagoa, Sn",Retorna Machine,R. Gomes Brasil,Parangaba,Sim,24h,-38.569879,-3.771151
"Praça Terminal Siqueira, Sn",Retorna Machine,Av. Gen. Osório de Paiva,Vila Peri,Sim,24h,-38.586853,-3.789302
"Praça Terminal Messejana, Sn",Retorna Machine,Av. Jornalista Tomaz Coelho,Messejana,Sim,24h,-38.502458,-3.831156
"Praça Terminal Siqueira, Sn",Retorna Machine,Av. Gen. Osório de Paiva,Vila Peri,Sim,24h,-38.58685004,-3.789304803
Ecoenel - Acores,Ecoenel,"Rua Frei Alemão, 210",Serrinha,Sim,Seg a sex (8 às 12h e 14 às 17h),-38.5432714,-3.783289
Ecoenel - Assaí­ Parangaba,Ecoenel,"Av. Godofredo Maciel, 86",Parangaba,Sim,Seg a sex (8 às 12h e 14 às 17h),-38.5647245,-3.7783327
Ecoenel - Associação Reciclando,Ecoenel,"Av. Plácido Castelo, 284",Jardim das Oliveiras,Sim,Seg a sex (8 às 12h e 14 às 17h),-38.5089526,-3.7841259
Ecoenel - Dias Macedo (Super do Povo),Ecoenel,"Rua XII, 200",Passaré,Sim,Seg a sex (8 às 12h e 14 às 17h),-38.5326733,-3.7937342
Ecoenel - Eletrônicos - Castelão,Ecoenel,"Av. Paulino Rocha,1690",Barroso,Sim,Seg a sex (8 às 12h e 14 às 17h),-38.511853,-3.8115779
Ecoenel - Eletrônicos - Iguatemi,Ecoenel,"Av. Washington Soares, 85",Edson Queiroz,Sim,Seg a sex (8 às 12h e 14 às 17h),-38.4889031,-3.7558476
Ecoenel - Grand Shopping Messejana,Ecoenel,"Rua Madre Ana Couto, 300",Messejana,Sim,Seg a sex (8 às 12h e 14 às 17h),-38.4984272,-3.8187782
Ecoenel - Maraponga Mart Moda,Ecoenel,"Rua Altair, 87",Maraponga,Sim,Seg a sex (8 às 12h e 14 às 17h),-38.5638673,-3.7957717
Ecoenel - Mondubim,Ecoenel,"Av. Godofredo Maciel, 6061",Mondubim,Sim,Seg a sex (8 às 12h e 14 às 17h),-38.5796446,-3.82695
Ecoenel - Pirambu,Ecoenel,"Rua Jacinto de Matos, 554",Fortaleza,Sim,Seg a sex (8 às 12h e 14 às 17h),-38.5464905,-3.7159217
Ecoenel - Presidente Kennedy,Ecoenel,"Praça Jonas  Gomes de Freitas, Rua 03 -  n 255",Presidente Kennedy,Sim,Seg a sex (8 às 12h e 14 às 17h),-38.5680779,-3.7341881
Ecoenel - Reserva Open Mal,Ecoenel,"Av. Washington Soares, 3340",Parque Manibura,Sim,Seg a sex (8 às 12h e 14 às 17h),-38.480945,-3.7878871
Ecoenel - Sebrae Praia de Iracema,Ecoenel,"Rua Dr. Atualpa barbosa lima, 394",Praia de Iracema,Sim,Seg a sex (8 às 12h e 14 às 17h),-38.5114401,-3.7233092
Ecoenel - Shopping RioMar (estacionamento),Ecoenel,Rio Mar saida Prisco Bezerra,Papicu,Sim,Seg a sex (8 às 12h e 14 às 17h),-38.4739921,-3.7401141
Farmácia Drogasil Abolição,Descarte Medicamentos,"Avenida da Abolição, 3038",Meireles,Não,Todos os dias 07:00 às 23:00,-38.4920944223616,-3.72714921192127
Farmácia Drogasil Aldeota,Descarte Medicamentos,"Avenida Santos Dumont, 2390",Aldeota,Não,Todos os dias 07:00 às 23:00,-38.5035554438233,-3.73478015719217
Farmácia Drogasil Aldeota 5,Descarte Medicamentos,"Avenida Santos Dumont, 3030",Aldeota,Não,Todos os dias 07:00 às 23:00,-38.4978871711026,-3.7365490610032
Farmácia Drogasil Aldeota 6,Descarte Medicamentos,"Avenida Desembargador Moreira, 940",Aldeota,Não,Todos os dias 07:00 às 23:00,-38.4978581013167,-3.73396717163028
Farmácia Drogasil Aldeota 7,Descarte Medicamentos,"Vicente Linhares, 74",Aldeota,Não,Todos os dias 07:00 às 23:00,-38.5033637175897,-3.7413040436656
Farmácia Drogasil Aldeota 8,Descarte Medicamentos,"Avenida Senador Virgílio Távora, 2201",Dionisio Torres,Não,Todos os dias 07:00 às 23:00,-38.4957498508994,-3.74560962237457
Farmácia Drogasil Antonio Sales,Descarte Medicamentos,"Avenida Antônio Sales, 1840",Dionisio Torres,Não,Todos os dias 07:00 às 23:00,-38.5075506444017,-3.74415019358664
Farmácia Drogasil Barão de Studart,Descarte Medicamentos,"Avenida Barão De Studart, 1501",Aldeota,Não,Todos os dias 07:00 às 23:00,-38.5072609815236,-3.73758760173871
Farmácia Drogasil Cambeba 1,Descarte Medicamentos,"Avenida Pedro Lazar, 877",Cambeba,Não,Todos os dias 07:00 às 23:00,-38.4883133127376,-3.80318458986312
Farmácia Drogasil Cidade dos Funcionários,Descarte Medicamentos,"Rua Chico Lemos, 1011",Cidades dos Funcionários,Não,Todos os dias 07:00 às 23:00,-38.4967903108302,-3.79598066608851
Farmácia Drogasil Dom Luis,Descarte Medicamentos,"Avenida Dom Luís, 1139",Meireles,Não,Todos os dias 07:00 às 23:00,-38.4902515444019,-3.73519676271071
Farmácia Drogasil Fatima 1,Descarte Medicamentos,"Avenida Treze de Maio, 1948",Fátima,Não,Todos os dias 07:00 às 23:00,-38.5348133431737,-3.74435600397009
Farmácia Drogasil Guararapes 1,Descarte Medicamentos,"Avenida Coronel Miguel Dias, 718",Guararapes,Não,Todos os dias 07:00 às 23:00,-38.4879560502592,-3.76414558910236
Farmácia Drogasil Jardim Cearense,Descarte Medicamentos,"Avenida Godofredo Maciel, 3101",Jardim Cearense,Não,Todos os dias 07:00 às 23:00,-38.5716488160452,-3.80316242792914
Farmácia Drogasil Joaquim Tavora 1,Descarte Medicamentos,"Avenida Antônio Sales, 666",Joaquim Távora,Não,Todos os dias 07:00 às 23:00,-38.5157094338289,-3.74154322004367
Farmácia Drogasil Joquei Clube 1,Descarte Medicamentos,"Avenida Augusto Dos Anjos, 352",Jóquei Clube,Não,Todos os dias 07:00 às 23:00,-38.57199602196,-3.77186091986061
Farmácia Drogasil Luciano Cavalcante 1,Descarte Medicamentos,"Avenida Coronel José Philomeno Gomes, S/N",Engenheiro Luciano Cavalcante,Não,Todos os dias 07:00 às 23:00,-38.4881112500385,-3.77713331387945
Farmácia Drogasil Meireles,Descarte Medicamentos,"Avenida Desembargador Moreira, 707",Meireles,Não,Todos os dias 07:00 às 23:00,-38.4968474524794,-3.73217273140215
Farmácia Drogasil Meireles 4,Descarte Medicamentos,"Avenida Rui Barbosa, 783",Meireles,Não,Todos os dias 07:00 às 23:00,-38.5073271799842,-3.73002407750321
Farmácia Drogasil Meireles 5,Descarte Medicamentos,"Avenida Monsenhor Tabosa, 1400",Meireles,Não,Todos os dias 07:00 às 23:00,-38.5067135620255,-3.72454877282224
Farmácia Drogasil Messejana,Descarte Medicamentos,"Avenida Frei Cirilo, 4080",Messejana,Não,Todos os dias 07:00 às 23:00,-38.4965068006851,-3.81993465298677
Farmácia Drogasil Padre Antônio,Descarte Medicamentos,"Avenida Padre Antônio Tomás, 3416",Cocó,Não,Todos os dias 07:00 às 23:00,-38.4814824444017,-3.7463167244682
Farmácia Drogasil Papicu 1,Descarte Medicamentos,"Avenida Santos Dumont, 6385",Papicu,Não,Todos os dias 07:00 às 23:00,-38.4751900097145,-3.74358969757594
Farmácia Drogasil Papicu 2,Descarte Medicamentos,"Rua Desembargador Lauro Nogueira, 1500",Papicu,Não,Todos os dias 07:00 às 23:00,-38.4717748314213,-3.74113598588081
Farmácia Drogasil Parquelandia,Descarte Medicamentos,"Avenida Jovita Feitosa, 3194",Parquelândia,Não,Todos os dias 07:00 às 23:00,-38.5664245811523,-3.74169962465465
Farmácia Drogasil Parquelandia 2,Descarte Medicamentos,"Avenida Bezerra de Menezes, 1409",São Gerardo,Não,Todos os dias 07:00 às 23:00,-38.557257947346,-3.73449153850014
Farmácia Drogasil Pontes Vieira,Descarte Medicamentos,"Avenida Pontes Vieira, 1486",Tauape,Não,Todos os dias 07:00 às 23:00,-38.5087684916406,-3.75241928624609
Farmácia Drogasil Salinas 1,Descarte Medicamentos,"Avenida Rogaciano Leite, 2080",Salinas,Não,Todos os dias 07:00 às 23:00,-38.4988839827419,-3.77282547229676
Farmácia Drogasil Santos Dumont,Descarte Medicamentos,"Avenida Santos Dumont, 1261",Aldeota,Não,Todos os dias 24h,-38.5123845296806,-3.73142600352588
Farmácia Drogasil Santos Dumont 2,Descarte Medicamentos,"Avenida Santos Dumont, 5916",Cocó,Não,Todos os dias 07:00 às 23:00,-38.4795822742349,-3.74266133629186
Farmácia Drogasil São Gerardo 1,Descarte Medicamentos,"Avenida Bezerra De Menezes, 720",São Gerardo,Não,Todos os dias 07:00 às 23:00,-38.5572543357761,-3.73448686285981
Farmácia Drogasil Sapiranga,Descarte Medicamentos,"Avenida Edilson Brasil Soares, 1060",Sapiranga,Não,Todos os dias 07:00 às 23:00,-38.4765048010814,-3.78930317805512
Farmácia Drogasil Senador Virgilio Távora,Descarte Medicamentos,"Avenida Senador Virgílio Távora, 1550",Meireles,Não,Todos os dias 07:00 às 23:00,-38.4942652032974,-3.73985462446051
Farmácia Drogasil Tibúrcio Cavalcante,Descarte Medicamentos,"Rua Tibúrcio Cavalcante, 801",Meireles,Não,Todos os dias 07:00 às 23:00,-38.5010327430947,-3.73184887429342
Farmácia Drogasil Vila Manoel Satiro,Descarte Medicamentos,"Rua Waldir Diogo, 1138",Mondubim,Não,Todos os dias 07:00 às 23:00,-38.5869287236312,-3.80075028216923
Farmácia Drogasil Vila Velha 1,Descarte Medicamentos,"Rua Cariús, 820",Vila Velha,Não,Todos os dias 07:00 às 23:00,-38.596189938558,-3.72059827486954
Farmácia Escola da UFC,Descarte Medicamentos,"R. Pastor Samuel Munguba, 1210",Rodolfo Teofilo,Não,07 às 17h(seg a sex),-38.550045,-3.7483892
Farmácia Hiper Bom Preço,Descarte Medicamentos,"Av. Engenheiro Santana Junior, 999",Papicu,Não,Seg a sab (07 às 22h) / dom (07 às 20h),-38.4825613,-3.7366511
Farmácia Santa Branca,Descarte Medicamentos,Avenida Central. 190-A,Cidade 2000,Não,Seg a sex (08 as 17h),-38.47149,-3.750197
Farmacia Pague menos (Centro),Descarte Medicamentos,"Rua Senador Pompeu, 1520",Pici,Não,Seg a dom (24 h),-38.5312348,-3.731947
